{"type":"FeatureCollection","features":[{"type":"Feature","id":"cascade-hes177-009-hes177-086","geometry":{"type":"LineString","coordinates":[[42.091,37.955],[41.826,37.531]]},"properties":{"fromId":"hes177-009","toId":"hes177-086","fromName":"ALKUMRU HES","toName":"ILISU HES","entityType":"hesCascade"}},{"type":"Feature","id":"cascade-hes177-012-hes177-175","geometry":{"type":"LineString","coordinates":[[41.519,39.033],[41.029,38.823]]},"properties":{"fromId":"hes177-012","toId":"hes177-175","fromName":"ALPASLAN2 HES","toName":"YUKARI KALEKÖY HES","entityType":"hesCascade"}},{"type":"Feature","id":"cascade-hes177-014-hes177-058","geometry":{"type":"LineString","coordinates":[[35.724167,41.363333],[35.84174,41.46121]]},"properties":{"fromId":"hes177-014","toId":"hes177-058","fromName":"ALTINKAYA HES","toName":"DERBENT HES","entityType":"hesCascade"}},{"type":"Feature","id":"cascade-hes177-018-hes177-177","geometry":{"type":"LineString","coordinates":[[41.418,40.719],[41.654,40.82]]},"properties":{"fromId":"hes177-018","toId":"hes177-177","fromName":"ARKUN HES","toName":"YUSUFELİ HES","entityType":"hesCascade"}},{"type":"Feature","id":"cascade-hes177-019-hes177-059","geometry":{"type":"LineString","coordinates":[[41.763,40.951],[41.869,41.172]]},"properties":{"fromId":"hes177-019","toId":"hes177-059","fromName":"ARTVİN HES","toName":"DERİNER HES","entityType":"hesCascade"}},{"type":"Feature","id":"cascade-hes177-023-hes177-036","geometry":{"type":"LineString","coordinates":[[40.72,38.836],[40.128,38.743]]},"properties":{"fromId":"hes177-023","toId":"hes177-036","fromName":"AŞAĞI KALEKÖY HES","toName":"BEYHAN1 HES","entityType":"hesCascade"}},{"type":"Feature","id":"cascade-hes177-025-hes177-037","geometry":{"type":"LineString","coordinates":[[38.3175,37.481667],[37.89,37.05]]},"properties":{"fromId":"hes177-025","toId":"hes177-037","fromName":"ATATÜRK HES","toName":"BİRECİK-NİZİP HES","entityType":"hesCascade"}},{"type":"Feature","id":"cascade-hes177-026-hes177-177","geometry":{"type":"LineString","coordinates":[[41.835,40.754],[41.654,40.82]]},"properties":{"fromId":"hes177-026","toId":"hes177-177","fromName":"AYVALI HES","toName":"YUSUFELİ HES","entityType":"hesCascade"}},{"type":"Feature","id":"cascade-hes177-027-hes177-028","geometry":{"type":"LineString","coordinates":[[38.52,39.448],[38.41,39.428]]},"properties":{"fromId":"hes177-027","toId":"hes177-028","fromName":"BAĞIŞTAŞ1 HES","toName":"BAĞIŞTAŞ2 HES","entityType":"hesCascade"}},{"type":"Feature","id":"cascade-hes177-028-hes177-105","geometry":{"type":"LineString","coordinates":[[38.41,39.428],[38.754,38.807]]},"properties":{"fromId":"hes177-028","toId":"hes177-105","fromName":"BAĞIŞTAŞ2 HES","toName":"KEBAN HES","entityType":"hesCascade"}},{"type":"Feature","id":"cascade-hes177-032-hes177-086","geometry":{"type":"LineString","coordinates":[[41.203,38.158],[41.826,37.531]]},"properties":{"fromId":"hes177-032","toId":"hes177-086","fromName":"BATMAN HES","toName":"ILISU HES","entityType":"hesCascade"}},{"type":"Feature","id":"cascade-hes177-033-hes177-084","geometry":{"type":"LineString","coordinates":[[34.96735000000007,38.766000000000076],[33.51871,39.2728]]},"properties":{"fromId":"hes177-033","toId":"hes177-084","fromName":"BAYRAMHACILI HES","toName":"HİRFANLI HES","entityType":"hesCascade"}},{"type":"Feature","id":"cascade-hes177-036-hes177-105","geometry":{"type":"LineString","coordinates":[[40.128,38.743],[38.754,38.807]]},"properties":{"fromId":"hes177-036","toId":"hes177-105","fromName":"BEYHAN1 HES","toName":"KEBAN HES","entityType":"hesCascade"}},{"type":"Feature","id":"cascade-hes177-037-hes177-100","geometry":{"type":"LineString","coordinates":[[37.89,37.05],[38.027,36.871]]},"properties":{"fromId":"hes177-037","toId":"hes177-100","fromName":"BİRECİK-NİZİP HES","toName":"KARKAMIŞ HES","entityType":"hesCascade"}},{"type":"Feature","id":"cascade-hes177-039-hes177-129","geometry":{"type":"LineString","coordinates":[[41.683,41.351],[41.714,41.468]]},"properties":{"fromId":"hes177-039","toId":"hes177-129","fromName":"BORÇKA HES","toName":"MURATLI HES","entityType":"hesCascade"}},{"type":"Feature","id":"cascade-hes177-048-hes177-142","geometry":{"type":"LineString","coordinates":[[35.28179,37.19874],[35.34139,37.03695]]},"properties":{"fromId":"hes177-048","toId":"hes177-142","fromName":"ÇATALAN HES","toName":"SEYHAN 1 HES","entityType":"hesCascade"}},{"type":"Feature","id":"cascade-hes177-051-hes177-171","geometry":{"type":"LineString","coordinates":[[36.37848,39.29711],[35.270980000000066,38.90469000000007]]},"properties":{"fromId":"hes177-051","toId":"hes177-171","fromName":"ÇERMİKLER HES","toName":"YAMULA HES","entityType":"hesCascade"}},{"type":"Feature","id":"cascade-hes177-052-hes177-009","geometry":{"type":"LineString","coordinates":[[42.356,37.973],[42.091,37.955]]},"properties":{"fromId":"hes177-052","toId":"hes177-009","fromName":"ÇETİN HES","toName":"ALKUMRU HES","entityType":"hesCascade"}},{"type":"Feature","id":"cascade-hes177-059-hes177-039","geometry":{"type":"LineString","coordinates":[[41.869,41.172],[41.683,41.351]]},"properties":{"fromId":"hes177-059","toId":"hes177-039","fromName":"DERİNER HES","toName":"BORÇKA HES","entityType":"hesCascade"}},{"type":"Feature","id":"cascade-hes177-061-hes177-086","geometry":{"type":"LineString","coordinates":[[40.175,38.229],[41.826,37.531]]},"properties":{"fromId":"hes177-061","toId":"hes177-086","fromName":"DİCLE HES","toName":"ILISU HES","entityType":"hesCascade"}},{"type":"Feature","id":"cascade-hes177-070-hes177-126","geometry":{"type":"LineString","coordinates":[[35.8652,37.7449],[35.7348,37.7097]]},"properties":{"fromId":"hes177-070","toId":"hes177-126","fromName":"FEKE2 HES","toName":"MENGE HES","entityType":"hesCascade"}},{"type":"Feature","id":"cascade-hes177-071-hes177-086","geometry":{"type":"LineString","coordinates":[[41.552,38.25],[41.826,37.531]]},"properties":{"fromId":"hes177-071","toId":"hes177-086","fromName":"GARZAN HES","toName":"ILISU HES","entityType":"hesCascade"}},{"type":"Feature","id":"cascade-hes177-073-hes177-174","geometry":{"type":"LineString","coordinates":[[31.016111,40.033056],[30.856300000000033,40.06310000000008]]},"properties":{"fromId":"hes177-073","toId":"hes177-174","fromName":"GÖKÇEKAYA HES","toName":"YENİCE HES","entityType":"hesCascade"}},{"type":"Feature","id":"cascade-hes177-077-hes177-018","geometry":{"type":"LineString","coordinates":[[41.047,40.544],[41.418,40.719]]},"properties":{"fromId":"hes177-077","toId":"hes177-018","fromName":"GÜLLÜBAĞ HES","toName":"ARKUN HES","entityType":"hesCascade"}},{"type":"Feature","id":"cascade-hes177-080-hes177-097","geometry":{"type":"LineString","coordinates":[[31.896630000000073,39.83355000000006],[31.739,39.967]]},"properties":{"fromId":"hes177-080","toId":"hes177-097","fromName":"GÜRSÖĞÜT HES","toName":"KARGI HES","entityType":"hesCascade"}},{"type":"Feature","id":"cascade-hes177-083-hes177-148","geometry":{"type":"LineString","coordinates":[[36.64676,40.93654],[36.67091,41.07479]]},"properties":{"fromId":"hes177-083","toId":"hes177-148","fromName":"HASAN UĞURLU HES","toName":"SUAT UĞURLU HES","entityType":"hesCascade"}},{"type":"Feature","id":"cascade-hes177-084-hes177-107","geometry":{"type":"LineString","coordinates":[[33.51871,39.2728],[33.42084,39.39565]]},"properties":{"fromId":"hes177-084","toId":"hes177-107","fromName":"HİRFANLI HES","toName":"KESİKKÖPRÜ","entityType":"hesCascade"}},{"type":"Feature","id":"cascade-hes177-089-hes177-138","geometry":{"type":"LineString","coordinates":[[37.00000000000006,38.00000000000006],[36.925392,37.56744]]},"properties":{"fromId":"hes177-089","toId":"hes177-138","fromName":"KANDİL HES","toName":"SARIGÜZEL HES","entityType":"hesCascade"}},{"type":"Feature","id":"cascade-hes177-093-hes177-025","geometry":{"type":"LineString","coordinates":[[39.135556,38.226389],[38.3175,37.481667]]},"properties":{"fromId":"hes177-093","toId":"hes177-025","fromName":"KARAKAYA HES DİYARBAKIR","toName":"ATATÜRK HES","entityType":"hesCascade"}},{"type":"Feature","id":"cascade-hes177-097-hes177-140","geometry":{"type":"LineString","coordinates":[[31.739,39.967],[31.413,40.052]]},"properties":{"fromId":"hes177-097","toId":"hes177-140","fromName":"KARGI HES","toName":"SARIYAR HES","entityType":"hesCascade"}},{"type":"Feature","id":"cascade-hes177-103-hes177-137","geometry":{"type":"LineString","coordinates":[[35.5294,37.562578],[35.445297,37.401506]]},"properties":{"fromId":"hes177-103","toId":"hes177-137","fromName":"KAVŞAKBENDİ HES","toName":"SANİBEY HES","entityType":"hesCascade"}},{"type":"Feature","id":"cascade-hes177-105-hes177-093","geometry":{"type":"LineString","coordinates":[[38.754,38.807],[39.135556,38.226389]]},"properties":{"fromId":"hes177-105","toId":"hes177-093","fromName":"KEBAN HES","toName":"KARAKAYA HES DİYARBAKIR","entityType":"hesCascade"}},{"type":"Feature","id":"cascade-hes177-107-hes177-090","geometry":{"type":"LineString","coordinates":[[33.42084,39.39565],[33.48299,39.73053]]},"properties":{"fromId":"hes177-107","toId":"hes177-090","fromName":"KESİKKÖPRÜ","toName":"KAPULUKAYA HES","entityType":"hesCascade"}},{"type":"Feature","id":"cascade-hes177-108-hes177-145","geometry":{"type":"LineString","coordinates":[[36.80339,37.62661],[36.5968,37.501]]},"properties":{"fromId":"hes177-108","toId":"hes177-145","fromName":"KILAVUZLU HES","toName":"SIR HES","entityType":"hesCascade"}},{"type":"Feature","id":"cascade-hes177-109-hes177-046","geometry":{"type":"LineString","coordinates":[[38.18700000000007,40.24210000000005],[38.07583,40.22917]]},"properties":{"fromId":"hes177-109","toId":"hes177-046","fromName":"KILIÇKAYA HES","toName":"ÇAMLIGÖZE HES","entityType":"hesCascade"}},{"type":"Feature","id":"cascade-hes177-110-hes177-134","geometry":{"type":"LineString","coordinates":[[40.373,39.299],[40.086,39.128]]},"properties":{"fromId":"hes177-110","toId":"hes177-134","fromName":"KİĞI HES","toName":"ÖZLÜCE HES","entityType":"hesCascade"}},{"type":"Feature","id":"cascade-hes177-114-hes177-017","geometry":{"type":"LineString","coordinates":[[42.957,41.163],[43.1035,41.2235]]},"properties":{"fromId":"hes177-114","toId":"hes177-017","fromName":"KOTANLI 1-2 HES","toName":"ARDAHAN AKINCI HES","entityType":"hesCascade"}},{"type":"Feature","id":"cascade-hes177-120-hes177-103","geometry":{"type":"LineString","coordinates":[[35.613631,37.6202],[35.5294,37.562578]]},"properties":{"fromId":"hes177-120","toId":"hes177-103","fromName":"KÖPRÜ HES","toName":"KAVŞAKBENDİ HES","entityType":"hesCascade"}},{"type":"Feature","id":"cascade-hes177-121-hes177-061","geometry":{"type":"LineString","coordinates":[[40.026,38.346],[40.175,38.229]]},"properties":{"fromId":"hes177-121","toId":"hes177-061","fromName":"KRALKIZI HES","toName":"DİCLE HES","entityType":"hesCascade"}},{"type":"Feature","id":"cascade-hes177-126-hes177-120","geometry":{"type":"LineString","coordinates":[[35.7348,37.7097],[35.613631,37.6202]]},"properties":{"fromId":"hes177-126","toId":"hes177-120","fromName":"MENGE HES","toName":"KÖPRÜ HES","entityType":"hesCascade"}},{"type":"Feature","id":"cascade-hes177-127-hes177-108","geometry":{"type":"LineString","coordinates":[[36.8504,37.6765],[36.80339,37.62661]]},"properties":{"fromId":"hes177-127","toId":"hes177-108","fromName":"MENZELET HES","toName":"KILAVUZLU HES","entityType":"hesCascade"}},{"type":"Feature","id":"cascade-hes177-132-hes177-098","geometry":{"type":"LineString","coordinates":[[34.788056,40.770278],[34.651,41.106]]},"properties":{"fromId":"hes177-132","toId":"hes177-098","fromName":"OBRUK HES","toName":"KARGI KIZILIRMAK HES","entityType":"hesCascade"}},{"type":"Feature","id":"cascade-hes177-134-hes177-135","geometry":{"type":"LineString","coordinates":[[40.086,39.128],[39.897,39.083]]},"properties":{"fromId":"hes177-134","toId":"hes177-135","fromName":"ÖZLÜCE HES","toName":"PEMBELİK HES","entityType":"hesCascade"}},{"type":"Feature","id":"cascade-hes177-135-hes177-155","geometry":{"type":"LineString","coordinates":[[39.897,39.083],[39.816,38.86]]},"properties":{"fromId":"hes177-135","toId":"hes177-155","fromName":"PEMBELİK HES","toName":"TATAR HES","entityType":"hesCascade"}},{"type":"Feature","id":"cascade-hes177-137-hes177-048","geometry":{"type":"LineString","coordinates":[[35.445297,37.401506],[35.28179,37.19874]]},"properties":{"fromId":"hes177-137","toId":"hes177-048","fromName":"SANİBEY HES","toName":"ÇATALAN HES","entityType":"hesCascade"}},{"type":"Feature","id":"cascade-hes177-138-hes177-127","geometry":{"type":"LineString","coordinates":[[36.925392,37.56744],[36.8504,37.6765]]},"properties":{"fromId":"hes177-138","toId":"hes177-127","fromName":"SARIGÜZEL HES","toName":"MENZELET HES","entityType":"hesCascade"}},{"type":"Feature","id":"cascade-hes177-140-hes177-073","geometry":{"type":"LineString","coordinates":[[31.413,40.052],[31.016111,40.033056]]},"properties":{"fromId":"hes177-140","toId":"hes177-073","fromName":"SARIYAR HES","toName":"GÖKÇEKAYA HES","entityType":"hesCascade"}},{"type":"Feature","id":"cascade-hes177-143-hes177-155","geometry":{"type":"LineString","coordinates":[[39.893,39.02],[39.816,38.86]]},"properties":{"fromId":"hes177-143","toId":"hes177-155","fromName":"SEYRANTEPE HES","toName":"TATAR HES","entityType":"hesCascade"}},{"type":"Feature","id":"cascade-hes177-155-hes177-105","geometry":{"type":"LineString","coordinates":[[39.816,38.86],[38.754,38.807]]},"properties":{"fromId":"hes177-155","toId":"hes177-105","fromName":"TATAR HES","toName":"KEBAN HES","entityType":"hesCascade"}},{"type":"Feature","id":"cascade-hes177-162-hes177-123","geometry":{"type":"LineString","coordinates":[[39.23144,40.63538],[39.125,40.683]]},"properties":{"fromId":"hes177-162","toId":"hes177-123","fromName":"TORUL HES","toName":"KÜRTÜN HES","entityType":"hesCascade"}},{"type":"Feature","id":"cascade-hes177-167-hes177-105","geometry":{"type":"LineString","coordinates":[[39.532,38.982],[38.754,38.807]]},"properties":{"fromId":"hes177-167","toId":"hes177-105","fromName":"UZUNÇAYIR HES","toName":"KEBAN HES","entityType":"hesCascade"}},{"type":"Feature","id":"cascade-hes177-171-hes177-033","geometry":{"type":"LineString","coordinates":[[35.270980000000066,38.90469000000007],[34.96735000000007,38.766000000000076]]},"properties":{"fromId":"hes177-171","toId":"hes177-033","fromName":"YAMULA HES","toName":"BAYRAMHACILI HES","entityType":"hesCascade"}},{"type":"Feature","id":"cascade-hes177-175-hes177-023","geometry":{"type":"LineString","coordinates":[[41.029,38.823],[40.72,38.836]]},"properties":{"fromId":"hes177-175","toId":"hes177-023","fromName":"YUKARI KALEKÖY HES","toName":"AŞAĞI KALEKÖY HES","entityType":"hesCascade"}},{"type":"Feature","id":"cascade-hes177-177-hes177-019","geometry":{"type":"LineString","coordinates":[[41.654,40.82],[41.763,40.951]]},"properties":{"fromId":"hes177-177","toId":"hes177-019","fromName":"YUSUFELİ HES","toName":"ARTVİN HES","entityType":"hesCascade"}}]}