{"type":"FeatureCollection","features":[{"type":"Feature","id":"dam177-001","geometry":{"type":"Point","coordinates":[31.01610000000005,40.033300000000054]},"properties":{"id":"dam177-001","entityId":"dam177-001","entityType":"hesDamPoints","name":"GÖKÇEKAYA","damName":"GÖKÇEKAYA","basinId":"12","basinName":"Sakarya","hesIds":["hes177-073"],"pointCount":2,"coordinateSource":"TATUS Layer 7","sourceIds":["41"],"isProducer":true,"minVolumeHm3":731.71,"maxVolumeHm3":953.1,"activeVolumeHm3":122.16,"fullnessPercent":55.17864402186188,"fullnessSource":"H"}},{"type":"Feature","id":"dam177-002","geometry":{"type":"Point","coordinates":[31.896630000000073,39.83355000000006]},"properties":{"id":"dam177-002","entityId":"dam177-002","entityType":"hesDamPoints","name":"GÜRSÖĞÜT-1 BARAJI","damName":"GÜRSÖĞÜT-1 BARAJI","basinId":"12","basinName":"Sakarya","hesIds":["hes177-080"],"pointCount":2,"coordinateSource":"TATUS Layer 7","sourceIds":["33"],"isProducer":true,"minVolumeHm3":48.58,"maxVolumeHm3":76.86,"activeVolumeHm3":16.44,"fullnessPercent":58.13295615275813,"fullnessSource":"H"}},{"type":"Feature","id":"dam177-003","geometry":{"type":"Point","coordinates":[30.856300000000033,40.06310000000008]},"properties":{"id":"dam177-003","entityId":"dam177-003","entityType":"hesDamPoints","name":"YENİCE","damName":"YENİCE","basinId":"12","basinName":"Sakarya","hesIds":["hes177-174"],"pointCount":2,"coordinateSource":"TATUS Layer 7","sourceIds":["46"],"isProducer":true,"minVolumeHm3":53.25,"maxVolumeHm3":57.92,"activeVolumeHm3":0.0,"fullnessPercent":0,"fullnessSource":"H"}},{"type":"Feature","id":"dam177-004","geometry":{"type":"Point","coordinates":[31.904000000000053,40.986330000000066]},"properties":{"id":"dam177-004","entityId":"dam177-004","entityType":"hesDamPoints","name":"KÖPRÜBAŞI","damName":"KÖPRÜBAŞI","basinId":"13","basinName":"Batı Karadeniz","hesIds":["hes177-119"],"pointCount":2,"coordinateSource":"TATUS Layer 7","sourceIds":["85"],"isProducer":true,"minVolumeHm3":56.34,"maxVolumeHm3":244.94,"activeVolumeHm3":116.28,"fullnessPercent":61.65429480381761,"fullnessSource":"H"}},{"type":"Feature","id":"dam177-005","geometry":{"type":"Point","coordinates":[36.903230000000065,40.40784000000008]},"properties":{"id":"dam177-005","entityId":"dam177-005","entityType":"hesDamPoints","name":"ALMUS","damName":"ALMUS","basinId":"14","basinName":"Yeşilırmak","hesIds":["hes177-010"],"pointCount":2,"coordinateSource":"TATUS Layer 7","sourceIds":["139"],"isProducer":true,"minVolumeHm3":146.06,"maxVolumeHm3":975.74,"activeVolumeHm3":602.84,"fullnessPercent":72.65933854016005,"fullnessSource":"H"}},{"type":"Feature","id":"dam177-006","geometry":{"type":"Point","coordinates":[38.07583000000005,40.22917000000007]},"properties":{"id":"dam177-006","entityId":"dam177-006","entityType":"hesDamPoints","name":"ÇAMLIGÖZE","damName":"ÇAMLIGÖZE","basinId":"14","basinName":"Yeşilırmak","hesIds":["hes177-046"],"pointCount":2,"coordinateSource":"TATUS Layer 7","sourceIds":["243"],"isProducer":true,"minVolumeHm3":24.32,"maxVolumeHm3":42.43,"activeVolumeHm3":18.11,"fullnessPercent":100,"fullnessSource":"H"}},{"type":"Feature","id":"dam177-007","geometry":{"type":"Point","coordinates":[36.64676000000003,40.936540000000036]},"properties":{"id":"dam177-007","entityId":"dam177-007","entityType":"hesDamPoints","name":"H.UĞURLU","damName":"H.UĞURLU","basinId":"14","basinName":"Yeşilırmak","hesIds":["hes177-083"],"pointCount":2,"coordinateSource":"TATUS Layer 7","sourceIds":["133"],"isProducer":true,"minVolumeHm3":183.2,"maxVolumeHm3":740.92,"activeVolumeHm3":307.82,"fullnessPercent":55.192569748260766,"fullnessSource":"H"}},{"type":"Feature","id":"dam177-008","geometry":{"type":"Point","coordinates":[38.18700000000007,40.24210000000005]},"properties":{"id":"dam177-008","entityId":"dam177-008","entityType":"hesDamPoints","name":"KILIÇKAYA","damName":"KILIÇKAYA","basinId":"14","basinName":"Yeşilırmak","hesIds":["hes177-109"],"pointCount":2,"coordinateSource":"TATUS Layer 7","sourceIds":["245"],"isProducer":true,"minVolumeHm3":367.13,"maxVolumeHm3":1400.39,"activeVolumeHm3":721.2,"fullnessPercent":69.79850182916206,"fullnessSource":"H"}},{"type":"Feature","id":"dam177-009","geometry":{"type":"Point","coordinates":[36.67091000000005,41.074790000000064]},"properties":{"id":"dam177-009","entityId":"dam177-009","entityType":"hesDamPoints","name":"S.UĞURLU","damName":"S.UĞURLU","basinId":"14","basinName":"Yeşilırmak","hesIds":["hes177-148"],"pointCount":2,"coordinateSource":"TATUS Layer 7","sourceIds":["134"],"isProducer":true,"minVolumeHm3":113.57,"maxVolumeHm3":139.6,"activeVolumeHm3":16.19,"fullnessPercent":62.19746446407991,"fullnessSource":"H"}},{"type":"Feature","id":"dam177-010","geometry":{"type":"Point","coordinates":[35.72393000000005,41.36369000000008]},"properties":{"id":"dam177-010","entityId":"dam177-010","entityType":"hesDamPoints","name":"ALTINKAYA","damName":"ALTINKAYA","basinId":"15","basinName":"Kızılırmak","hesIds":["hes177-014"],"pointCount":2,"coordinateSource":"TATUS Layer 7","sourceIds":["128"],"isProducer":true,"minVolumeHm3":2871.0,"maxVolumeHm3":5763.0,"activeVolumeHm3":1214.23,"fullnessPercent":41.985822959889354,"fullnessSource":"H"}},{"type":"Feature","id":"dam177-011","geometry":{"type":"Point","coordinates":[34.96735000000007,38.766000000000076]},"properties":{"id":"dam177-011","entityId":"dam177-011","entityType":"hesDamPoints","name":"BAYRAMHACILI HES","damName":"BAYRAMHACILI HES","basinId":"15","basinName":"Kızılırmak","hesIds":["hes177-033"],"pointCount":2,"coordinateSource":"TATUS Layer 7","sourceIds":["176"],"isProducer":true,"minVolumeHm3":149.0,"maxVolumeHm3":215.0,"activeVolumeHm3":45.24,"fullnessPercent":68.54545454545456,"fullnessSource":"H"}},{"type":"Feature","id":"dam177-012","geometry":{"type":"Point","coordinates":[36.378480000000025,39.29711000000003]},"properties":{"id":"dam177-012","entityId":"dam177-012","entityType":"hesDamPoints","name":"ÇERMİKLER","damName":"ÇERMİKLER","basinId":"15","basinName":"Kızılırmak","hesIds":["hes177-051"],"pointCount":2,"coordinateSource":"TATUS Layer 7","sourceIds":["233"],"isProducer":true,"minVolumeHm3":30.5,"maxVolumeHm3":37.4,"activeVolumeHm3":5.95,"fullnessPercent":86.23188405797103,"fullnessSource":"H"}},{"type":"Feature","id":"dam177-013","geometry":{"type":"Point","coordinates":[35.84174000000007,41.46121000000005]},"properties":{"id":"dam177-013","entityId":"dam177-013","entityType":"hesDamPoints","name":"DERBENT","damName":"DERBENT","basinId":"15","basinName":"Kızılırmak","hesIds":["hes177-058"],"pointCount":2,"coordinateSource":"TATUS Layer 7","sourceIds":["129"],"isProducer":true,"minVolumeHm3":145.82,"maxVolumeHm3":190.01,"activeVolumeHm3":27.98,"fullnessPercent":63.31749264539489,"fullnessSource":"H"}},{"type":"Feature","id":"dam177-014","geometry":{"type":"Point","coordinates":[33.518710000000056,39.272800000000075]},"properties":{"id":"dam177-014","entityId":"dam177-014","entityType":"hesDamPoints","name":"HİRFANLI","damName":"HİRFANLI","basinId":"15","basinName":"Kızılırmak","hesIds":["hes177-084"],"pointCount":2,"coordinateSource":"TATUS Layer 7","sourceIds":["70"],"isProducer":true,"minVolumeHm3":3683.77,"maxVolumeHm3":5653.28,"activeVolumeHm3":954.24,"fullnessPercent":48.4506298520952,"fullnessSource":"H"}},{"type":"Feature","id":"dam177-015","geometry":{"type":"Point","coordinates":[33.48299000000003,39.730530000000044]},"properties":{"id":"dam177-015","entityId":"dam177-015","entityType":"hesDamPoints","name":"KAPULUKAYA","damName":"KAPULUKAYA","basinId":"15","basinName":"Kızılırmak","hesIds":["hes177-090"],"pointCount":1,"coordinateSource":"TATUS Layer 7","sourceIds":["97"],"isProducer":true,"minVolumeHm3":111.73,"maxVolumeHm3":224.91,"activeVolumeHm3":100.36,"fullnessPercent":88.67291040819933,"fullnessSource":"H"}},{"type":"Feature","id":"dam177-016","geometry":{"type":"Point","coordinates":[33.420840000000055,39.395650000000046]},"properties":{"id":"dam177-016","entityId":"dam177-016","entityType":"hesDamPoints","name":"KESİKKÖPRÜ","damName":"KESİKKÖPRÜ","basinId":"15","basinName":"Kızılırmak","hesIds":["hes177-107"],"pointCount":2,"coordinateSource":"TATUS Layer 7","sourceIds":["72"],"isProducer":true,"minVolumeHm3":32.45,"maxVolumeHm3":89.78,"activeVolumeHm3":55.54,"fullnessPercent":96.87772544915401,"fullnessSource":"H"}},{"type":"Feature","id":"dam177-017","geometry":{"type":"Point","coordinates":[34.78817000000004,40.770200000000045]},"properties":{"id":"dam177-017","entityId":"dam177-017","entityType":"hesDamPoints","name":"OBRUK","damName":"OBRUK","basinId":"15","basinName":"Kızılırmak","hesIds":["hes177-132"],"pointCount":2,"coordinateSource":"TATUS Layer 7","sourceIds":["89"],"isProducer":true,"minVolumeHm3":297.72,"maxVolumeHm3":427.16,"activeVolumeHm3":47.62,"fullnessPercent":36.78924598269469,"fullnessSource":"H"}},{"type":"Feature","id":"dam177-018","geometry":{"type":"Point","coordinates":[35.270980000000066,38.90469000000007]},"properties":{"id":"dam177-018","entityId":"dam177-018","entityType":"hesDamPoints","name":"YAMULA","damName":"YAMULA","basinId":"15","basinName":"Kızılırmak","hesIds":["hes177-171"],"pointCount":2,"coordinateSource":"TATUS Layer 7","sourceIds":["169"],"isProducer":true,"minVolumeHm3":1384.79,"maxVolumeHm3":3443.49,"activeVolumeHm3":1510.45,"fullnessPercent":73.36911643270025,"fullnessSource":"H"}},{"type":"Feature","id":"dam177-019","geometry":{"type":"Point","coordinates":[32.895,36.181667]},"properties":{"id":"dam177-019","entityId":"dam177-019","entityType":"hesDamPoints","name":"ALAKÖPRÜ","damName":"ALAKÖPRÜ","basinId":"17","basinName":"Doğu Akdeniz","hesIds":["hes177-008"],"pointCount":1,"coordinateSource":"verified-hes-point","sourceIds":[],"isProducer":true,"minVolumeHm3":36.28,"maxVolumeHm3":117.07,"activeVolumeHm3":56.61,"fullnessPercent":70.07055328629782,"fullnessSource":"H"}},{"type":"Feature","id":"dam177-020","geometry":{"type":"Point","coordinates":[32.967778,36.568056]},"properties":{"id":"dam177-020","entityId":"dam177-020","entityType":"hesDamPoints","name":"ERMENEK","damName":"ERMENEK","basinId":"17","basinName":"Doğu Akdeniz","hesIds":["hes177-068"],"pointCount":1,"coordinateSource":"verified-hes-point","sourceIds":[],"isProducer":true,"minVolumeHm3":2835.2,"maxVolumeHm3":4582.6,"activeVolumeHm3":1317.12,"fullnessPercent":75.37598718095452,"fullnessSource":"H"}},{"type":"Feature","id":"dam177-021","geometry":{"type":"Point","coordinates":[33.19288000000006,36.53015000000005]},"properties":{"id":"dam177-021","entityId":"dam177-021","entityType":"hesDamPoints","name":"GEZENDE","damName":"GEZENDE","basinId":"17","basinName":"Doğu Akdeniz","hesIds":["hes177-072"],"pointCount":2,"coordinateSource":"TATUS Layer 7","sourceIds":["53"],"isProducer":true,"minVolumeHm3":26.43,"maxVolumeHm3":91.9,"activeVolumeHm3":34.94,"fullnessPercent":53.36795478845272,"fullnessSource":"H"}},{"type":"Feature","id":"dam177-022","geometry":{"type":"Point","coordinates":[35.28179000000006,37.19874000000004]},"properties":{"id":"dam177-022","entityId":"dam177-022","entityType":"hesDamPoints","name":"ÇATALAN","damName":"ÇATALAN","basinId":"18","basinName":"Seyhan","hesIds":["hes177-048"],"pointCount":2,"coordinateSource":"TATUS Layer 7","sourceIds":["101"],"isProducer":true,"minVolumeHm3":1302.32,"maxVolumeHm3":2028.68,"activeVolumeHm3":126.43,"fullnessPercent":17.4059694917121,"fullnessSource":"H"}},{"type":"Feature","id":"dam177-023","geometry":{"type":"Point","coordinates":[35.86520000000007,37.74490000000003]},"properties":{"id":"dam177-023","entityId":"dam177-023","entityType":"hesDamPoints","name":"FEKE-2","damName":"FEKE-2","basinId":"18","basinName":"Seyhan","hesIds":["hes177-070"],"pointCount":2,"coordinateSource":"TATUS Layer 7","sourceIds":["102"],"isProducer":true,"minVolumeHm3":34.74,"maxVolumeHm3":63.07,"activeVolumeHm3":23.69,"fullnessPercent":83.62160254147548,"fullnessSource":"H"}},{"type":"Feature","id":"dam177-024","geometry":{"type":"Point","coordinates":[35.480000000000075,37.71028000000007]},"properties":{"id":"dam177-024","entityId":"dam177-024","entityType":"hesDamPoints","name":"GÖKTAŞ-1","damName":"GÖKTAŞ-1","basinId":"18","basinName":"Seyhan","hesIds":["hes177-076"],"pointCount":2,"coordinateSource":"TATUS Layer 7","sourceIds":["103"],"isProducer":true,"minVolumeHm3":84.63,"maxVolumeHm3":109.33,"activeVolumeHm3":7.39,"fullnessPercent":29.919028340080967,"fullnessSource":"H"}},{"type":"Feature","id":"dam177-025","geometry":{"type":"Point","coordinates":[35.52889000000005,37.56278000000003]},"properties":{"id":"dam177-025","entityId":"dam177-025","entityType":"hesDamPoints","name":"KAVŞAKBENDİ HES","damName":"KAVŞAKBENDİ HES","basinId":"18","basinName":"Seyhan","hesIds":["hes177-103"],"pointCount":2,"coordinateSource":"TATUS Layer 7","sourceIds":["105"],"isProducer":true,"minVolumeHm3":22.63,"maxVolumeHm3":30.19,"activeVolumeHm3":3.64,"fullnessPercent":48.14814814814813,"fullnessSource":"H"}},{"type":"Feature","id":"dam177-026","geometry":{"type":"Point","coordinates":[35.613000000000056,37.62080000000003]},"properties":{"id":"dam177-026","entityId":"dam177-026","entityType":"hesDamPoints","name":"KÖPRÜ","damName":"KÖPRÜ","basinId":"18","basinName":"Seyhan","hesIds":["hes177-120"],"pointCount":2,"coordinateSource":"TATUS Layer 7","sourceIds":["106"],"isProducer":true,"minVolumeHm3":45.95,"maxVolumeHm3":93.19,"activeVolumeHm3":34.25,"fullnessPercent":72.50211685012702,"fullnessSource":"H"}},{"type":"Feature","id":"dam177-027","geometry":{"type":"Point","coordinates":[35.734800000000064,37.709700000000055]},"properties":{"id":"dam177-027","entityId":"dam177-027","entityType":"hesDamPoints","name":"MENGE HES","damName":"MENGE HES","basinId":"18","basinName":"Seyhan","hesIds":["hes177-126"],"pointCount":2,"coordinateSource":"TATUS Layer 7","sourceIds":["107"],"isProducer":true,"minVolumeHm3":22.42,"maxVolumeHm3":45.11,"activeVolumeHm3":13.77,"fullnessPercent":60.68752754517409,"fullnessSource":"H"}},{"type":"Feature","id":"dam177-028","geometry":{"type":"Point","coordinates":[35.34139000000005,37.03695000000005]},"properties":{"id":"dam177-028","entityId":"dam177-028","entityType":"hesDamPoints","name":"SEYHAN-I","damName":"SEYHAN-I","basinId":"18","basinName":"Seyhan","hesIds":["hes177-142"],"pointCount":2,"coordinateSource":"TATUS Layer 7","sourceIds":["109"],"isProducer":true,"minVolumeHm3":160.7,"maxVolumeHm3":835.35,"activeVolumeHm3":null,"fullnessPercent":null,"fullnessSource":"—"}},{"type":"Feature","id":"dam177-029","geometry":{"type":"Point","coordinates":[35.487700000000075,37.356700000000046]},"properties":{"id":"dam177-029","entityId":"dam177-029","entityType":"hesDamPoints","name":"YEDİGÖZE","damName":"YEDİGÖZE","basinId":"18","basinName":"Seyhan","hesIds":["hes177-137"],"pointCount":2,"coordinateSource":"TATUS Layer 7","sourceIds":["110"],"isProducer":true,"minVolumeHm3":342.35,"maxVolumeHm3":642.82,"activeVolumeHm3":276.57,"fullnessPercent":92.04579492128997,"fullnessSource":"H"}},{"type":"Feature","id":"dam177-030","geometry":{"type":"Point","coordinates":[36.27156000000008,37.27290000000005]},"properties":{"id":"dam177-030","entityId":"dam177-030","entityType":"hesDamPoints","name":"ASLANTAŞ","damName":"ASLANTAŞ","basinId":"20","basinName":"Ceyhan","hesIds":["hes177-022"],"pointCount":2,"coordinateSource":"TATUS Layer 7","sourceIds":["99"],"isProducer":true,"minVolumeHm3":418.08,"maxVolumeHm3":1515.48,"activeVolumeHm3":669.47,"fullnessPercent":61.00510297065792,"fullnessSource":"H"}},{"type":"Feature","id":"dam177-031","geometry":{"type":"Point","coordinates":[36.461550000000045,37.37308000000007]},"properties":{"id":"dam177-031","entityId":"dam177-031","entityType":"hesDamPoints","name":"BERKE","damName":"BERKE","basinId":"20","basinName":"Ceyhan","hesIds":["hes177-035"],"pointCount":2,"coordinateSource":"TATUS Layer 7","sourceIds":["117"],"isProducer":true,"minVolumeHm3":125.0,"maxVolumeHm3":427.0,"activeVolumeHm3":274.34,"fullnessPercent":90.841059602649,"fullnessSource":"H"}},{"type":"Feature","id":"dam177-032","geometry":{"type":"Point","coordinates":[37.00000000000006,38.00000000000006]},"properties":{"id":"dam177-032","entityId":"dam177-032","entityType":"hesDamPoints","name":"KANDİL HES","damName":"KANDİL HES","basinId":"20","basinName":"Ceyhan","hesIds":["hes177-089"],"pointCount":2,"coordinateSource":"TATUS Layer 7","sourceIds":["248"],"isProducer":true,"minVolumeHm3":115.0,"maxVolumeHm3":438.0,"activeVolumeHm3":196.67,"fullnessPercent":60.88854489164086,"fullnessSource":"H"}},{"type":"Feature","id":"dam177-033","geometry":{"type":"Point","coordinates":[36.803390000000036,37.62661000000003]},"properties":{"id":"dam177-033","entityId":"dam177-033","entityType":"hesDamPoints","name":"KILAVUZLU","damName":"KILAVUZLU","basinId":"20","basinName":"Ceyhan","hesIds":["hes177-108"],"pointCount":2,"coordinateSource":"TATUS Layer 7","sourceIds":["250"],"isProducer":true,"minVolumeHm3":71.99,"maxVolumeHm3":78.65,"activeVolumeHm3":5.53,"fullnessPercent":83.0330330330329,"fullnessSource":"H"}},{"type":"Feature","id":"dam177-034","geometry":{"type":"Point","coordinates":[36.850400000000036,37.67650000000003]},"properties":{"id":"dam177-034","entityId":"dam177-034","entityType":"hesDamPoints","name":"MENZELET","damName":"MENZELET","basinId":"20","basinName":"Ceyhan","hesIds":["hes177-127"],"pointCount":2,"coordinateSource":"TATUS Layer 7","sourceIds":["251"],"isProducer":true,"minVolumeHm3":533.9,"maxVolumeHm3":1974.5,"activeVolumeHm3":1152.88,"fullnessPercent":80.02776620852424,"fullnessSource":"H"}},{"type":"Feature","id":"dam177-035","geometry":{"type":"Point","coordinates":[36.925392,37.56744]},"properties":{"id":"dam177-035","entityId":"dam177-035","entityType":"hesDamPoints","name":"SARIGÜZEL HES","damName":"SARIGÜZEL HES","basinId":"20","basinName":"Ceyhan","hesIds":["hes177-138"],"pointCount":1,"coordinateSource":"verified-hes-point","sourceIds":[],"isProducer":true,"minVolumeHm3":20.33,"maxVolumeHm3":59.4,"activeVolumeHm3":31.88,"fullnessPercent":81.59713335039672,"fullnessSource":"H"}},{"type":"Feature","id":"dam177-036","geometry":{"type":"Point","coordinates":[36.59680000000003,37.50100000000003]},"properties":{"id":"dam177-036","entityId":"dam177-036","entityType":"hesDamPoints","name":"SIR","damName":"SIR","basinId":"20","basinName":"Ceyhan","hesIds":["hes177-145"],"pointCount":2,"coordinateSource":"TATUS Layer 7","sourceIds":["253"],"isProducer":true,"minVolumeHm3":424.5,"maxVolumeHm3":1172.4,"activeVolumeHm3":510.79,"fullnessPercent":68.29656371172617,"fullnessSource":"H"}},{"type":"Feature","id":"dam177-037","geometry":{"type":"Point","coordinates":[38.3175,37.481667]},"properties":{"id":"dam177-037","entityId":"dam177-037","entityType":"hesDamPoints","name":"ATATÜRK","damName":"ATATÜRK","basinId":"21","basinName":"Fırat - Dicle","hesIds":["hes177-025"],"pointCount":1,"coordinateSource":"verified-hes-point","sourceIds":[],"isProducer":true,"minVolumeHm3":null,"maxVolumeHm3":null,"activeVolumeHm3":null,"fullnessPercent":null,"fullnessSource":"—"}},{"type":"Feature","id":"dam177-038","geometry":{"type":"Point","coordinates":[39.135556,38.226389]},"properties":{"id":"dam177-038","entityId":"dam177-038","entityType":"hesDamPoints","name":"KARAKAYA","damName":"KARAKAYA","basinId":"21","basinName":"Fırat - Dicle","hesIds":["hes177-093"],"pointCount":1,"coordinateSource":"verified-hes-point","sourceIds":[],"isProducer":true,"minVolumeHm3":null,"maxVolumeHm3":null,"activeVolumeHm3":null,"fullnessPercent":null,"fullnessSource":"—"}},{"type":"Feature","id":"dam177-039","geometry":{"type":"Point","coordinates":[39.09545000000003,40.69314000000003]},"properties":{"id":"dam177-039","entityId":"dam177-039","entityType":"hesDamPoints","name":"AKKÖY 1","damName":"AKKÖY 1","basinId":"22","basinName":"Doğu Karadeniz","hesIds":["hes177-005"],"pointCount":1,"coordinateSource":"TATUS Layer 7","sourceIds":["276"],"isProducer":true,"minVolumeHm3":0.62,"maxVolumeHm3":3.34,"activeVolumeHm3":null,"fullnessPercent":null,"fullnessSource":"—"}},{"type":"Feature","id":"dam177-040","geometry":{"type":"Point","coordinates":[38.9909,40.73784]},"properties":{"id":"dam177-040","entityId":"dam177-040","entityType":"hesDamPoints","name":"AKKÖY2","damName":"AKKÖY2","basinId":"22","basinName":"Doğu Karadeniz","hesIds":["hes177-006"],"pointCount":1,"coordinateSource":"verified-hes-point","sourceIds":[],"isProducer":true,"minVolumeHm3":null,"maxVolumeHm3":null,"activeVolumeHm3":null,"fullnessPercent":null,"fullnessSource":"—"}},{"type":"Feature","id":"dam177-041","geometry":{"type":"Point","coordinates":[37.738890000000026,40.60250000000008]},"properties":{"id":"dam177-041","entityId":"dam177-041","entityType":"hesDamPoints","name":"TOPÇAM-ORDU","damName":"TOPÇAM-ORDU","basinId":"22","basinName":"Doğu Karadeniz","hesIds":["hes177-160"],"pointCount":2,"coordinateSource":"TATUS Layer 7","sourceIds":["126"],"isProducer":true,"minVolumeHm3":22.0,"maxVolumeHm3":132.88,"activeVolumeHm3":53.53,"fullnessPercent":48.27741702741703,"fullnessSource":"H"}},{"type":"Feature","id":"dam177-042","geometry":{"type":"Point","coordinates":[39.23144000000008,40.635380000000055]},"properties":{"id":"dam177-042","entityId":"dam177-042","entityType":"hesDamPoints","name":"TORUL","damName":"TORUL","basinId":"22","basinName":"Doğu Karadeniz","hesIds":["hes177-162"],"pointCount":2,"coordinateSource":"TATUS Layer 7","sourceIds":["280"],"isProducer":true,"minVolumeHm3":59.72,"maxVolumeHm3":132.75,"activeVolumeHm3":0.82,"fullnessPercent":1.1228262357935095,"fullnessSource":"H"}},{"type":"Feature","id":"dam177-043","geometry":{"type":"Point","coordinates":[43.1035,41.2235]},"properties":{"id":"dam177-043","entityId":"dam177-043","entityType":"hesDamPoints","name":"ARDAHAN AKINCI","damName":"ARDAHAN AKINCI","basinId":"24","basinName":"Aras","hesIds":["hes177-017"],"pointCount":1,"coordinateSource":"verified-hes-point","sourceIds":[],"isProducer":true,"minVolumeHm3":null,"maxVolumeHm3":null,"activeVolumeHm3":null,"fullnessPercent":null,"fullnessSource":"—"}},{"type":"Feature","id":"dam177-044","geometry":{"type":"Point","coordinates":[28.773000000000025,40.015550000000076]},"properties":{"id":"dam177-044","entityId":"dam177-044","entityType":"hesDamPoints","name":"ÇINARCIK","damName":"ÇINARCIK","basinId":"3","basinName":"Susurluk","hesIds":["hes177-164"],"pointCount":2,"coordinateSource":"TATUS Layer 7","sourceIds":["4"],"isProducer":true,"minVolumeHm3":186.15,"maxVolumeHm3":372.94,"activeVolumeHm3":75.07,"fullnessPercent":40.18951764013063,"fullnessSource":"H"}},{"type":"Feature","id":"dam177-045","geometry":{"type":"Point","coordinates":[28.56126000000006,39.91964000000007]},"properties":{"id":"dam177-045","entityId":"dam177-045","entityType":"hesDamPoints","name":"DEVECİKONAĞI","damName":"DEVECİKONAĞI","basinId":"3","basinName":"Susurluk","hesIds":["hes177-060"],"pointCount":2,"coordinateSource":"TATUS Layer 7","sourceIds":["6"],"isProducer":true,"minVolumeHm3":4.33,"maxVolumeHm3":6.21,"activeVolumeHm3":1.52,"fullnessPercent":80.85106382978724,"fullnessSource":"H"}},{"type":"Feature","id":"dam177-046","geometry":{"type":"Point","coordinates":[28.31194000000005,38.616940000000056]},"properties":{"id":"dam177-046","entityId":"dam177-046","entityType":"hesDamPoints","name":"DEMİRKÖPRÜ","damName":"DEMİRKÖPRÜ","basinId":"5","basinName":"Gediz","hesIds":["hes177-057"],"pointCount":2,"coordinateSource":"TATUS Layer 7","sourceIds":["28"],"isProducer":true,"minVolumeHm3":249.66,"maxVolumeHm3":1014.22,"activeVolumeHm3":332.42,"fullnessPercent":43.47860207177985,"fullnessSource":"H"}},{"type":"Feature","id":"dam177-047","geometry":{"type":"Point","coordinates":[29.205550000000073,38.15861000000007]},"properties":{"id":"dam177-047","entityId":"dam177-047","entityType":"hesDamPoints","name":"ADIGÜZEL","damName":"ADIGÜZEL","basinId":"7","basinName":"Büyük Menderes","hesIds":["hes177-003"],"pointCount":2,"coordinateSource":"TATUS Layer 7","sourceIds":["263"],"isProducer":true,"minVolumeHm3":226.44,"maxVolumeHm3":1032.26,"activeVolumeHm3":null,"fullnessPercent":null,"fullnessSource":"—"}},{"type":"Feature","id":"dam177-048","geometry":{"type":"Point","coordinates":[29.15691000000004,38.13667000000004]},"properties":{"id":"dam177-048","entityId":"dam177-048","entityType":"hesDamPoints","name":"ADIGÜZEL-2 HES","damName":"ADIGÜZEL-2 HES","basinId":"7","basinName":"Büyük Menderes","hesIds":["hes177-002"],"pointCount":2,"coordinateSource":"TATUS Layer 7","sourceIds":["264"],"isProducer":true,"minVolumeHm3":9.73,"maxVolumeHm3":15.25,"activeVolumeHm3":0.09,"fullnessPercent":1.6304347826086956,"fullnessSource":"H"}},{"type":"Feature","id":"dam177-049","geometry":{"type":"Point","coordinates":[29.03511000000003,38.115230000000054]},"properties":{"id":"dam177-049","entityId":"dam177-049","entityType":"hesDamPoints","name":"CİNDERE","damName":"CİNDERE","basinId":"7","basinName":"Büyük Menderes","hesIds":["hes177-045"],"pointCount":2,"coordinateSource":"TATUS Layer 7","sourceIds":["266"],"isProducer":true,"minVolumeHm3":5.62,"maxVolumeHm3":84.27,"activeVolumeHm3":27.08,"fullnessPercent":34.431023521932616,"fullnessSource":"H"}},{"type":"Feature","id":"dam177-050","geometry":{"type":"Point","coordinates":[28.129940000000033,37.49475000000007]},"properties":{"id":"dam177-050","entityId":"dam177-050","entityType":"hesDamPoints","name":"ÇİNE ADNAN MENDERES","damName":"ÇİNE ADNAN MENDERES","basinId":"7","basinName":"Büyük Menderes","hesIds":["hes177-054"],"pointCount":2,"coordinateSource":"TATUS Layer 7","sourceIds":["255"],"isProducer":true,"minVolumeHm3":37.0,"maxVolumeHm3":350.0,"activeVolumeHm3":162.25,"fullnessPercent":51.837060702875405,"fullnessSource":"H"}},{"type":"Feature","id":"dam177-051","geometry":{"type":"Point","coordinates":[29.50089,36.83455]},"properties":{"id":"dam177-051","entityId":"dam177-051","entityType":"hesDamPoints","name":"EŞEN 1","damName":"EŞEN 1","basinId":"8","basinName":"Batı Akdeniz","hesIds":["hes177-069"],"pointCount":1,"coordinateSource":"verified-hes-point","sourceIds":[],"isProducer":true,"minVolumeHm3":2.62,"maxVolumeHm3":22.92,"activeVolumeHm3":4.64,"fullnessPercent":22.857142857142854,"fullnessSource":"H"}},{"type":"Feature","id":"dam177-052","geometry":{"type":"Point","coordinates":[28.52490000000006,37.57204000000007]},"properties":{"id":"dam177-052","entityId":"dam177-052","entityType":"hesDamPoints","name":"KEMER","damName":"KEMER","basinId":"7","basinName":"Büyük Menderes","hesIds":["hes177-106"],"pointCount":2,"coordinateSource":"TATUS Layer 7","sourceIds":["259"],"isProducer":true,"minVolumeHm3":45.66,"maxVolumeHm3":413.97,"activeVolumeHm3":91.21,"fullnessPercent":24.764464717221898,"fullnessSource":"H"}},{"type":"Feature","id":"dam177-053","geometry":{"type":"Point","coordinates":[28.901800000000037,36.898000000000025]},"properties":{"id":"dam177-053","entityId":"dam177-053","entityType":"hesDamPoints","name":"AKKÖPRÜ","damName":"AKKÖPRÜ","basinId":"8","basinName":"Batı Akdeniz","hesIds":["hes177-004"],"pointCount":2,"coordinateSource":"TATUS Layer 7","sourceIds":["270"],"isProducer":true,"minVolumeHm3":195.81,"maxVolumeHm3":419.2,"activeVolumeHm3":12.49,"fullnessPercent":5.591118671381889,"fullnessSource":"H"}},{"type":"Feature","id":"dam177-054","geometry":{"type":"Point","coordinates":[30.82893000000007,37.36964000000006]},"properties":{"id":"dam177-054","entityId":"dam177-054","entityType":"hesDamPoints","name":"KARACAÖREN I","damName":"KARACAÖREN I","basinId":"9","basinName":"Antalya","hesIds":["hes177-091"],"pointCount":2,"coordinateSource":"TATUS Layer 7","sourceIds":["220"],"isProducer":true,"minVolumeHm3":346.96,"maxVolumeHm3":1234.0,"activeVolumeHm3":402.92,"fullnessPercent":45.4229797979798,"fullnessSource":"H"}},{"type":"Feature","id":"dam177-055","geometry":{"type":"Point","coordinates":[30.79630000000003,37.26420000000007]},"properties":{"id":"dam177-055","entityId":"dam177-055","entityType":"hesDamPoints","name":"KARACAÖREN II","damName":"KARACAÖREN II","basinId":"9","basinName":"Antalya","hesIds":["hes177-092"],"pointCount":2,"coordinateSource":"TATUS Layer 7","sourceIds":["187"],"isProducer":true,"minVolumeHm3":26.34,"maxVolumeHm3":31.38,"activeVolumeHm3":4.41,"fullnessPercent":87.50000000000003,"fullnessSource":"H"}},{"type":"Feature","id":"dam177-056","geometry":{"type":"Point","coordinates":[31.515930000000026,36.83689000000004]},"properties":{"id":"dam177-056","entityId":"dam177-056","entityType":"hesDamPoints","name":"MANAVGAT","damName":"MANAVGAT","basinId":"9","basinName":"Antalya","hesIds":["hes177-124"],"pointCount":2,"coordinateSource":"TATUS Layer 7","sourceIds":["189"],"isProducer":true,"minVolumeHm3":12.3,"maxVolumeHm3":86.8,"activeVolumeHm3":60.47,"fullnessPercent":81.16778523489933,"fullnessSource":"H"}},{"type":"Feature","id":"dam177-057","geometry":{"type":"Point","coordinates":[31.532300000000077,36.908600000000035]},"properties":{"id":"dam177-057","entityId":"dam177-057","entityType":"hesDamPoints","name":"OYMAPINAR","damName":"OYMAPINAR","basinId":"9","basinName":"Antalya","hesIds":["hes177-133"],"pointCount":2,"coordinateSource":"TATUS Layer 7","sourceIds":["191"],"isProducer":true,"minVolumeHm3":239.22,"maxVolumeHm3":322.53,"activeVolumeHm3":67.17,"fullnessPercent":80.62657544112353,"fullnessSource":"H"}}]}