{
  "type": "FeatureCollection",
  "features": [
    {
      "type": "Feature",
      "id": "river-geometry-override-aras-615180",
      "geometry": {
        "type": "LineString",
        "coordinates": [
          [42.698502000000076, 40.142836000000045],
          [42.69862600000005, 40.142795000000035],
          [42.69898600000005, 40.142585000000054],
          [42.69904600000007, 40.142585000000054],
          [42.69955600000003, 40.142345000000034],
          [42.69961600000005, 40.14228500000007],
          [42.700019000000054, 40.14208300000007],
          [42.70003600000007, 40.142075000000034],
          [42.70018600000003, 40.14195500000005],
          [42.70024600000005, 40.14195500000005],
          [42.70033600000005, 40.141895000000034],
          [42.70051600000005, 40.14180500000003],
          [42.70072600000003, 40.14162500000003],
          [42.70090600000003, 40.14153500000003],
          [42.70096600000005, 40.14153500000003],
          [42.70126600000003, 40.14135500000003],
          [42.70132600000005, 40.14135500000003],
          [42.70137100000005, 40.14133250000003],
          [42.70168600000005, 40.14117500000003],
          [42.70174600000007, 40.14111500000007],
          [42.70198600000003, 40.14099500000003],
          [42.70246600000007, 40.14084500000007],
          [42.702706000000035, 40.14072500000003],
          [42.702946000000054, 40.14069500000005],
          [42.703306000000055, 40.14057500000007],
          [42.703786000000036, 40.14036500000003],
          [42.70414600000004, 40.14027500000003],
          [42.70441600000004, 40.14012500000007],
          [42.70447600000006, 40.14012500000007],
          [42.70459600000004, 40.14003500000007],
          [42.70513600000004, 40.13985500000007],
          [42.70531600000004, 40.13976500000007],
          [42.70543600000008, 40.13964500000003],
          [42.70579600000008, 40.13949500000007],
          [42.70594600000004, 40.13937500000003],
          [42.70621600000004, 40.13928500000003],
          [42.70645600000006, 40.13913500000007],
          [42.70681600000006, 40.13898500000005],
          [42.70687600000008, 40.13892500000003],
          [42.70699600000006, 40.13889500000005],
          [42.70705600000008, 40.13880500000005],
          [42.70741600000008, 40.138685000000066],
          [42.70768600000008, 40.13853500000005],
          [42.70783600000004, 40.138505000000066],
          [42.70792600000004, 40.13844500000005],
          [42.708196000000044, 40.13838500000003],
          [42.708226000000025, 40.13835500000005],
          [42.70834600000006, 40.13835500000005],
          [42.708376000000044, 40.138325000000066],
          [42.709156000000064, 40.13829500000003],
          [42.709186000000045, 40.138325000000066],
          [42.70984600000003, 40.138325000000066],
          [42.709876000000065, 40.13835500000005],
          [42.709966000000065, 40.13835500000005],
          [42.70999600000005, 40.138325000000066],
          [42.71074600000003, 40.138325000000066],
          [42.71077600000007, 40.13829500000003],
          [42.71092600000003, 40.13829500000003],
          [42.71095600000007, 40.13826500000005],
          [42.71101600000003, 40.13829500000003],
          [42.71160200000003, 40.138303000000064]
        ]
      },
      "properties": {
        "riverSystemId": "river-system-033",
        "riverName": "Aras",
        "riverCode": "TR24NH025145",
        "source": "TATUS FeatureServer Layer 8",
        "sourceFeatureId": "615180",
        "sourceUrl": "https://cbs1.tarimorman.gov.tr/server/rest/services/TATUS/FeatureServer/8/query?where=nehir_kod%3D%27TR24NH025145%27%20AND%20OBJECTID%3D615180&outFields=OBJECTID%2Cadi%2Cnehir_kod%2Cstrahler%2Cuzunluk%2CHAVZA_ID&returnGeometry=true&outSR=4326&f=geojson",
        "purpose": "Verified Aras reach adjacent to Karakurt HES hes177-094; retained across canonical rebuilds."
      }
    }
  ]
}
